[{"OBJECT_NAME":"FALCON EYE 2","OBJECT_ID":"2020-090A","EPOCH":"2026-03-09T02:26:19.073760","MEAN_MOTION":14.84956326,"ECCENTRICITY":0.00011533,"INCLINATION":97.8521,"RA_OF_ASC_NODE":144.2551,"ARG_OF_PERICENTER":93.9066,"MEAN_ANOMALY":266.228,"EPHEMERIS_TYPE":0,"CLASSIFICATION_TYPE":"U","NORAD_CAT_ID":47226,"ELEMENT_SET_NO":999,"REV_AT_EPOCH":28538,"BSTAR":0.0002554448,"MEAN_MOTION_DOT":2.123e-5,"MEAN_MOTION_DDOT":0},{"OBJECT_NAME":"SL-14 R\/B","OBJECT_ID":"1985-058B","EPOCH":"2026-03-09T17:05:08.172096","MEAN_MOTION":14.85781539,"ECCENTRICITY":0.00210646,"INCLINATION":82.5282,"RA_OF_ASC_NODE":154.9342,"ARG_OF_PERICENTER":138.8618,"MEAN_ANOMALY":221.4192,"EPHEMERIS_TYPE":0,"CLASSIFICATION_TYPE":"U","NORAD_CAT_ID":15890,"ELEMENT_SET_NO":999,"REV_AT_EPOCH":17646,"BSTAR":7.1757705e-5,"MEAN_MOTION_DOT":6.5e-6,"MEAN_MOTION_DDOT":0}]
